NORAD_CAT_ID,OBJECT_NAME,OBJECT_TYPE,EPOCH,MEAN_MOTION,ECCENTRICITY,INCLINATION,RA_OF_ASC_NODE,ARG_OF_PERICENTER,MEAN_ANOMALY,BSTAR,MEAN_MOTION_DOT,MEAN_MOTION_DDOT,TLE_LINE0,TLE_LINE1,TLE_LINE2,SEMIMAJOR_AXIS,PERIOD,APOGEE,PERIGEE,DECAYED
51993.0,STARLINK-3648,PAYLOAD,2022-05-28 22:00:00,15.08839611,0.0001992,53.2192,117.6218,56.9442,294.3641,0.0018501,0.00029279,0.0,0 STARLINK-3648,1 51993U 22025AP  22148.91667824  .00029279  00000-0  18501-2 0  9994,2 51993  53.2192 117.6218 0001992  56.9442 294.3641 15.08839611  1303,6917.882,95.438,541.125,538.369,0.0
51993.0,STARLINK-3648,PAYLOAD,2022-05-29 04:23:53,15.0884628,0.0002134,53.2204,116.426,57.8781,302.2418,0.00015433,2.169e-05,0.0,0 STARLINK-3648,1 51993U 22025AP  22149.18326123  .00002169  00000-0  15433-3 0  9999,2 51993  53.2204 116.4260 0002134  57.8781 302.2418 15.08846280 13760,6917.861,95.437,541.202,538.25,0.0
51993.0,STARLINK-3648,PAYLOAD,2022-05-29 14:00:01,15.088397199999998,0.0001994,53.2194,114.63,50.5993,323.9001,-0.0019764,-0.00031605,0.0,0 STARLINK-3648,1 51993U 22025AP  22149.58334491 -.00031605  00000-0 -19764-2 0  9999,2 51993  53.2194 114.6300 0001994  50.5993 323.9001 15.08839720  1307,6917.880999999999,95.438,541.126,538.367,0.0
51993.0,STARLINK-3648,PAYLOAD,2022-05-29 20:00:01,15.08821691,0.0001887,53.2198,113.5069,54.4619,238.7275,-0.00026588,-4.515e-05,0.0,0 STARLINK-3648,1 51993U 22025AP  22149.83334491 -.00004515  00000-0 -26588-3 0  9990,2 51993  53.2198 113.5069 0001887  54.4619 238.7275 15.08821691 13868,6917.936,95.439,541.107,538.496,0.0
51993.0,STARLINK-3648,PAYLOAD,2022-05-29 22:00:00,15.08830492,0.0001897,53.22,113.1332,54.765,331.3143,-0.0014343,-0.00023037,0.0,0 STARLINK-3648,1 51993U 22025AP  22149.91667824 -.00023037  00000-0 -14343-2 0  9993,2 51993  53.2200 113.1332 0001897  54.7650 331.3143 15.08830492  1309,6917.909000000002,95.438,541.087,538.462,0.0
51993.0,STARLINK-3648,PAYLOAD,2022-05-30 14:00:01,15.08826753,0.0001939,53.2201,110.1413,51.0926,358.117,-0.001486,-0.00023852,0.0,0 STARLINK-3648,1 51993U 22025AP  22150.58334491 -.00023852  00000-0 -14860-2 0  9998,2 51993  53.2201 110.1413 0001939  51.0926 358.1170 15.08826753  1302,6917.920999999999,95.438,541.127,538.444,0.0
51993.0,STARLINK-3648,PAYLOAD,2022-05-30 22:00:00,15.08822321,0.000189,53.2205,108.6448,55.6795,5.0926,0.00055171,8.499e-05,0.0,0 STARLINK-3648,1 51993U 22025AP  22150.91667824  .00008499  00000-0  55171-3 0  9993,2 51993  53.2205 108.6448 0001890  55.6795   5.0926 15.08822321  1300,6917.934,95.439,541.107,538.492,0.0
51993.0,STARLINK-3648,PAYLOAD,2022-05-31 04:05:29,15.08826598,0.0001926,53.2212,107.5064,54.6165,305.5007,-5.7568e-05,-1.204e-05,0.0,0 STARLINK-3648,1 51993U 22025AP  22151.17047942 -.00001204  00000-0 -57568-4 0  9997,2 51993  53.2212 107.5064 0001926  54.6165 305.5007 15.08826598 14065,6917.920999999999,95.438,541.119,538.4540000000002,0.0
51993.0,STARLINK-3648,PAYLOAD,2022-05-31 06:00:02,15.08812196,0.0002056,53.2205,107.1504,50.5733,21.8441,0.0014832,0.00023378,0.0,0 STARLINK-3648,1 51993U 22025AP  22151.25002315  .00023378  00000-0  14832-2 0  9990,2 51993  53.2205 107.1504 0002056  50.5733  21.8441 15.08812196  1305,6917.965,95.439,541.253,538.408,0.0
51993.0,STARLINK-3648,PAYLOAD,2022-05-31 22:00:00,15.08844041,0.0001905,53.2207,104.1566,57.8757,37.634,9.0905e-05,1.159e-05,0.0,0 STARLINK-3648,1 51993U 22025AP  22151.91667824  .00001159  00000-0  90905-4 0  9995,2 51993  53.2207 104.1566 0001905  57.8757  37.6340 15.08844041  1307,6917.868,95.437,541.0509999999998,538.415,0.0
51993.0,STARLINK-3648,PAYLOAD,2022-06-01 04:00:00,15.0884233,0.0002054,53.2205,103.036,53.4689,320.7432,-0.00023151,-3.971e-05,0.0,0 STARLINK-3648,1 51993U 22025AP  22152.16667824 -.00003971  00000-0 -23151-3 0  9997,2 51993  53.2205 103.0360 0002054  53.4689 320.7432 15.08842330 14218,6917.873000000001,95.437,541.159,538.317,0.0
51993.0,STARLINK-3648,PAYLOAD,2022-06-01 20:00:01,15.08842545,0.0001922,53.2204,100.042,60.5321,336.8802,0.0019728,0.00031251,0.0,0 STARLINK-3648,1 51993U 22025AP  22152.83334491  .00031251  00000-0  19728-2 0  9996,2 51993  53.2204 100.0420 0001922  60.5321 336.8802 15.08842545  1309,6917.873000000001,95.437,541.067,538.408,0.0
51993.0,STARLINK-3648,PAYLOAD,2022-06-02 19:40:54,15.08844531,0.0002027,53.2212,95.6128,54.7202,305.398,0.00014385,2.002e-05,0.0,0 STARLINK-3648,1 51993U 22025AP  22153.82007530  .00002002  00000-0  14385-3 0  9994,2 51993  53.2212  95.6128 0002027  54.7202 305.3980 15.08844531 14468,6917.8669999999975,95.437,541.134,538.3290000000002,0.0
51993.0,STARLINK-3648,PAYLOAD,2022-06-03 02:02:27,15.08836209,0.0002049,53.2215,94.4241,57.2768,302.8422,1.4516e-05,-5.7e-07,0.0,0 STARLINK-3648,1 51993U 22025AP  22154.08504546 -.00000057  00000-0  14516-4 0  9998,2 51993  53.2215  94.4241 0002049  57.2768 302.8422 15.08836209 14504,6917.892,95.438,541.174,538.34,0.0
51993.0,STARLINK-3648,PAYLOAD,2022-06-03 13:10:09,15.08843667,0.0002107,53.222,92.3427,58.9409,301.1790000000001,3.91e-05,3.34e-06,0.0,0 STARLINK-3648,1 51993U 22025AP  22154.54871995  .00000334  00000-0  39100-4 0  9997,2 51993  53.2220  92.3427 0002107  58.9409 301.1790 15.08843667 13468,6917.869000000002,95.437,541.192,538.2769999999998,0.0
51993.0,STARLINK-3648,PAYLOAD,2022-06-04 03:28:36,15.08854024,0.0002114,53.222,89.6666,58.9175,301.2025,4.7607e-05,4.7e-06,0.0,0 STARLINK-3648,1 51993U 22025AP  22155.14486963  .00000470  00000-0  47607-4 0  9993,2 51993  53.2220  89.6666 0002114  58.9175 301.2025 15.08854024 14664,6917.8380000000025,95.437,541.165,538.24,0.0
51993.0,STARLINK-3648,PAYLOAD,2022-06-04 13:00:55,15.08847979,0.0002164,53.222,87.8826,58.5796,301.5408,-1.6155e-05,-5.45e-06,0.0,0 STARLINK-3648,1 51993U 22025AP  22155.54231305 -.00000545  00000-0 -16155-4 0  9994,2 51993  53.2220  87.8826 0002164  58.5796 301.5408 15.08847979 13615,6917.856,95.437,541.2180000000002,538.224,0.0
51993.0,STARLINK-3648,PAYLOAD,2022-06-05 20:00:01,15.08836803,0.0001957,53.2208,82.0876,60.5026,116.1071,0.00029095,4.345e-05,0.0,0 STARLINK-3648,1 51993U 22025AP  22156.83334491  .00004345  00000-0  29095-3 0  9993,2 51993  53.2208  82.0876 0001957  60.5026 116.1071 15.08836803 14926,6917.89,95.438,541.109,538.401,0.0
51993.0,STARLINK-3648,PAYLOAD,2022-06-05 22:00:00,15.088473,0.000198,53.2207,81.714,58.8472,210.6577,-0.001198,-0.00019308,0.0,0 STARLINK-3648,1 51993U 22025AP  22156.91667824 -.00019308  00000-0 -11980-2 0  9991,2 51993  53.2207  81.7140 0001980  58.8472 210.6577 15.08847300  1309,6917.858,95.437,541.0930000000002,538.3530000000002,0.0
51993.0,STARLINK-3648,PAYLOAD,2022-06-06 14:00:01,15.08838299,0.0001923,53.2208,78.7209,58.9732,233.728,0.00049417,7.585e-05,0.0,0 STARLINK-3648,1 51993U 22025AP  22157.58334491  .00007585  00000-0  49417-3 0  9995,2 51993  53.2208  78.7209 0001923  58.9732 233.7280 15.08838299  1303,6917.886,95.438,541.081,538.42,0.0
51993.0,STARLINK-3648,PAYLOAD,2022-06-06 22:00:00,15.08849576,0.0001942,53.221,77.2252,58.78,245.5164,-0.0021445,-0.00034265,0.0,0 STARLINK-3648,1 51993U 22025AP  22157.91667824 -.00034265  00000-0 -21445-2 0  9998,2 51993  53.2210  77.2252 0001942  58.7800 245.5164 15.08849576  1305,6917.851,95.437,541.06,538.373,0.0
51993.0,STARLINK-3648,PAYLOAD,2022-06-07 06:00:00,15.08816831,0.0002014,53.2206,75.73,53.3959,262.4975,0.0027224,0.00043278,0.0,0 STARLINK-3648,1 51993U 22025AP  22158.25001157  .00043278  00000-0  27224-2 0  9990,2 51993  53.2206  75.7300 0002014  53.3959 262.4975 15.08816831 15136,6917.951,95.439,541.2090000000002,538.423,0.0
51993.0,STARLINK-3648,PAYLOAD,2022-06-07 14:00:01,15.08819805,0.0001855,53.2209,74.2319,59.908,267.5774,0.0024939,0.00039604,0.0,0 STARLINK-3648,1 51993U 22025AP  22158.58334491  .00039604  00000-0  24939-2 0  9994,2 51993  53.2209  74.2319 0001855  59.9080 267.5774 15.08819805  1303,6917.941999999999,95.439,541.09,538.524,0.0
51993.0,STARLINK-3648,PAYLOAD,2022-06-07 22:00:00,15.08877051,0.0001864,53.2211,72.7365,59.1328,279.9411,-0.0042587,-0.000675,0.0,0 STARLINK-3648,1 51993U 22025AP  22158.91667824 -.00067500  00000-0 -42587-2 0  9997,2 51993  53.2211  72.7365 0001864  59.1328 279.9411 15.08877051 15236,6917.767,95.435,540.922,538.3430000000002,0.0
51993.0,STARLINK-3648,PAYLOAD,2022-06-08 14:00:01,15.0881857,0.0001712,53.2208,69.7431,60.4575,301.819,0.0020989,0.00033254,0.0,0 STARLINK-3648,1 51993U 22025AP  22159.58334491  .00033254  00000-0  20989-2 0  9991,2 51993  53.2208  69.7431 0001712  60.4575 301.8190 15.08818570 15334,6917.946,95.439,540.995,538.627,0.0
51993.0,STARLINK-3648,PAYLOAD,2022-06-08 22:00:01,15.08846888,0.0001756,53.221,68.2478,58.643,315.2769,-0.0033459,-0.00053156,0.0,0 STARLINK-3648,1 51993U 22025AP  22159.91668981 -.00053156  00000-0 -33459-2 0  9993,2 51993  53.2210  68.2478 0001756  58.6430 315.2769 15.08846888  1305,6917.859,95.437,540.939,538.51,0.0
51993.0,STARLINK-3648,PAYLOAD,2022-06-09 06:00:00,15.08809014,0.0001799,53.2204,66.7523,53.0558,332.3817,0.0016555,0.00026135,0.0,0 STARLINK-3648,1 51993U 22025AP  22160.25001157  .00026135  00000-0  16555-2 0  9991,2 51993  53.2204  66.7523 0001799  53.0558 332.3817 15.08809014 15432,6917.975,95.44,541.085,538.596,0.0
51993.0,STARLINK-3648,PAYLOAD,2022-06-09 14:00:01,15.08799453,0.0001654,53.2206,65.2544,61.4303,335.5845,0.0030139,0.00047951,0.0,0 STARLINK-3648,1 51993U 22025AP  22160.58334491  .00047951  00000-0  30139-2 0  9990,2 51993  53.2206  65.2544 0001654  61.4303 335.5845 15.08799453  1304,6918.004,95.44,541.014,538.725,0.0
51993.0,STARLINK-3648,PAYLOAD,2022-06-09 22:00:00,15.08845025,0.0001773,53.2208,63.7595,59.8948,348.6853,-0.0016558,-0.00026547,0.0,0 STARLINK-3648,1 51993U 22025AP  22160.91667824 -.00026547  00000-0 -16558-2 0  9995,2 51993  53.2208  63.7595 0001773  59.8948 348.6853 15.08845025  1304,6917.865,95.437,540.957,538.503,0.0
